MEAN_MOTION;ECCENTRICITY;INCLINATION;RA_OF_ASC_NODE;ARG_OF_PERICENTER;MEAN_ANOMALY;BSTAR;MEAN_MOTION_DOT;MEAN_MOTION_DDOT;TYPE
2.0057696;0.0074882;53.1082;131.1082;279.4851;79.7394;0;1.0E-7;0;Navigation
2.0057696;0.0074882;53.1082;131.1082;279.4851;79.7394;0;1.0E-7;0;Navigation
2.0057703;0.0074902;53.1087;131.0663;279.5217;79.706;0;1.6E-7;0;Navigation
2.0057703;0.0074902;53.1087;131.0663;279.5217;79.706;0;1.6E-7;0;Navigation
2.00577105;0.0074929;53.1091;131.0245;279.555;79.6764;0;2.2E-7;0;Navigation
2.00577183;0.0074948;53.1093;131.0036;279.5734;79.6597;0;2.4E-7;0;Navigation
2.00577215;0.0074953;53.1095;130.9826;279.5929;79.6418;0;2.6E-7;0;Navigation
2.00577215;0.0074953;53.1095;130.9826;279.5929;79.6418;0;2.6E-7;0;Navigation
2.00577321;0.0074978;53.1099;130.9408;279.6294;79.607;0;2.7E-7;0;Navigation
2.00577407;0.0075004;53.1103;130.899;279.6582;79.5778;0;2.3E-7;0;Navigation
2.00577421;0.0075003;53.1103;130.899;279.6645;79.5715;0;2.3E-7;0;Navigation
2.00577512;0.0075021;53.1105;130.878;279.6818;79.5531;0;1.9E-7;0;Navigation
2.00577563;0.0075028;53.1107;130.8571;279.6966;79.5369;0;1.5E-7;0;Navigation
2.00577643;0.0075041;53.1112;130.8152;279.7321;79.4975;0;4.0E-8;0;Navigation
2.00577739;0.0075059;53.1114;130.7943;279.7466;79.4806;0;-1.0E-8;0;Navigation
2.0057786;0.0075081;53.112;130.7315;279.7886;79.4322;0;-1.6E-7;0;Navigation
2.0057786;0.0075081;53.112;130.7315;279.7886;79.4322;0;-1.6E-7;0;Navigation
2.00577885;0.0075079;53.112;130.7315;279.7938;79.427;0;-1.6E-7;0;Navigation
2.00577885;0.0075079;53.112;130.7315;279.7938;79.427;0;-1.6E-7;0;Navigation
2.00577885;0.0075079;53.112;130.7315;279.7938;79.427;0;-1.6E-7;0;Navigation
2.00578113;0.0075128;53.113;130.6479;279.8596;79.3565;0;-2.2E-7;0;Navigation
2.00578113;0.0075128;53.113;130.6479;279.8596;79.3565;0;-2.2E-7;0;Navigation
2.00578262;0.0075162;53.1135;130.6061;279.8943;79.322;0;-1.6E-7;0;Navigation
2.00578262;0.0075162;53.1135;130.6061;279.8943;79.322;0;-1.6E-7;0;Navigation
2.00578384;0.0075178;53.1141;130.5434;279.9437;79.2761;0;-1.0E-8;0;Navigation
2.00578371;0.0075181;53.1141;130.5433;279.9392;79.2806;0;-1.0E-8;0;Navigation
2.00578496;0.0075197;53.1146;130.5016;279.9782;79.2452;0;1.1E-7;0;Navigation
2.00578547;0.0075202;53.1148;130.4807;279.9952;79.2301;0;1.8E-7;0;Navigation
2.00578547;0.0075202;53.1148;130.4807;279.9952;79.2301;0;1.8E-7;0;Navigation
2.00578708;0.0075233;53.1155;130.418;280.0534;79.1774;0;3.5E-7;0;Navigation
2.00578738;0.0075239;53.1157;130.3971;280.0683;79.164;0;4.0E-7;0;Navigation
2.00578785;0.007525;53.1161;130.3553;280.0999;79.1345;0;4.6E-7;0;Navigation
2.00578785;0.007525;53.1161;130.3553;280.0999;79.1345;0;4.6E-7;0;Navigation
2.00578875;0.0075269;53.1166;130.3135;280.1408;79.0941;0;5.0E-7;0;Navigation
2.00578929;0.007529;53.1171;130.2717;280.176;79.0576;0;5.1E-7;0;Navigation
2.00578929;0.007529;53.1171;130.2717;280.176;79.0576;0;5.1E-7;0;Navigation
2.00579033;0.0075311;53.1176;130.23;280.2237;79.007;0;5.0E-7;0;Navigation
2.00579044;0.007531;53.1178;130.209;280.2392;78.9896;0;4.9E-7;0;Navigation
2.00579102;0.0075324;53.1182;130.1673;280.2732;78.9509;0;4.6E-7;0;Navigation
2.00579144;0.0075325;53.1185;130.1463;280.2966;78.9251;0;4.5E-7;0;Navigation
2.00579145;0.0075326;53.1185;130.1464;280.2988;78.9229;0;4.5E-7;0;Navigation
2.00579179;0.007533;53.1188;130.1254;280.3179;78.9012;0;4.3E-7;0;Navigation
2.00579179;0.007533;53.1188;130.1254;280.3179;78.9012;0;4.3E-7;0;Navigation
2.00579288;0.0075344;53.1195;130.0627;280.3724;78.8405;0;4.1E-7;0;Navigation
2.00579348;0.0075351;53.1198;130.0418;280.3915;78.8199;0;4.1E-7;0;Navigation
2.00579359;0.0075351;53.12;130.0209;280.4094;78.8011;0;4.2E-7;0;Navigation
2.00579424;0.0075361;53.1205;129.9791;280.4367;78.7732;0;4.5E-7;0;Navigation
2.00579463;0.0075364;53.1206;129.9791;280.4417;78.7683;0;4.5E-7;0;Navigation
2.00579463;0.0075364;53.1206;129.9791;280.4417;78.7683;0;4.5E-7;0;Navigation
2.00579463;0.0075364;53.1206;129.9791;280.4417;78.7683;0;4.5E-7;0;Navigation
2.00579463;0.0075364;53.1206;129.9791;280.4417;78.7683;0;4.5E-7;0;Navigation
2.00544942;0.0074649;53.1229;129.8119;281.2483;77.9779;0;6.3E-7;0;Navigation
2.00544973;0.0074644;53.1231;129.7909;281.2621;77.9638;0;6.2E-7;0;Navigation
2.00545028;0.007464;53.1233;129.7698;281.2913;77.9339;0;6.0E-7;0;Navigation
2.00545098;0.0074656;53.1236;129.7489;281.3324;77.8912;0;5.7E-7;0;Navigation
2.00545297;0.0074652;53.1241;129.6864;281.3423;77.8744;0;4.2E-7;0;Navigation
2.00545397;0.0074655;53.1245;129.6446;281.383;77.8277;0;3.0E-7;0;Navigation
2.00545508;0.0074659;53.125;129.6029;281.4166;77.7881;0;1.9E-7;0;Navigation
2.00545628;0.0074665;53.1255;129.5612;281.4476;77.7521;0;1.1E-7;0;Navigation
2.00545712;0.0074681;53.126;129.5194;281.477;77.7191;0;8.0E-8;0;Navigation
2.00545712;0.0074681;53.126;129.5194;281.477;77.7191;0;8.0E-8;0;Navigation
2.00545844;0.0074685;53.1265;129.4776;281.5141;77.6804;0;1.1E-7;0;Navigation
2.00545885;0.0074689;53.1266;129.4777;281.5164;77.6781;0;1.1E-7;0;Navigation
2.00545885;0.0074689;53.1266;129.4777;281.5164;77.6781;0;1.1E-7;0;Navigation
2.00545885;0.0074689;53.1266;129.4777;281.5164;77.6781;0;1.1E-7;0;Navigation
2.00546163;0.0074698;53.128;129.3524;281.6151;77.5836;0;4.0E-7;0;Navigation
2.00546163;0.0074698;53.128;129.3524;281.6151;77.5836;0;4.0E-7;0;Navigation
2.00546209;0.0074696;53.1281;129.3524;281.6214;77.5773;0;4.0E-7;0;Navigation
2.00546209;0.0074696;53.1281;129.3524;281.6214;77.5773;0;4.0E-7;0;Navigation
2.00546358;0.0074688;53.129;129.2689;281.679;77.5248;0;6.1E-7;0;Navigation
2.00546444;0.007469;53.1295;129.2271;281.716;77.4893;0;6.8E-7;0;Navigation
2.00546511;0.0074701;53.13;129.1854;281.758;77.4472;0;7.1E-7;0;Navigation
2.00546511;0.0074701;53.13;129.1854;281.758;77.4472;0;7.1E-7;0;Navigation
2.00546584;0.0074705;53.1305;129.1437;281.7961;77.4074;0;7.2E-7;0;Navigation
2.00546584;0.0074705;53.1305;129.1437;281.7961;77.4074;0;7.2E-7;0;Navigation
2.00546708;0.0074706;53.1314;129.0602;281.8607;77.3349;0;6.8E-7;0;Navigation
2.00546708;0.0074706;53.1314;129.0602;281.8607;77.3349;0;6.8E-7;0;Navigation
2.00546774;0.0074702;53.1319;129.0185;281.896;77.2942;0;6.4E-7;0;Navigation
2.00546828;0.0074701;53.1324;128.9767;281.9326;77.252;0;6.0E-7;0;Navigation
2.00546878;0.0074693;53.1327;128.9559;281.9582;77.2239;0;5.9E-7;0;Navigation
2.00546978;0.007469;53.1334;128.8933;282.0307;77.1456;0;5.7E-7;0;Navigation
2.00547028;0.0074689;53.1337;128.8724;282.0501;77.125;0;5.7E-7;0;Navigation
2.00547028;0.0074689;53.1337;128.8724;282.0501;77.125;0;5.7E-7;0;Navigation
2.00547137;0.0074681;53.1344;128.8098;282.1027;77.0722;0;6.2E-7;0;Navigation
2.00547209;0.0074679;53.1349;128.7681;282.1393;77.0369;0;6.7E-7;0;Navigation
2.00547276;0.007468;53.1352;128.7472;282.1575;77.0196;0;6.9E-7;0;Navigation
2.00547372;0.0074678;53.1358;128.6846;282.2079;76.9708;0;7.3E-7;0;Navigation
2.00547415;0.0074659;53.1359;128.6846;282.2223;76.9567;0;7.3E-7;0;Navigation
2.00547459;0.0074659;53.1363;128.6428;282.2507;76.9275;0;7.0E-7;0;Navigation
2.00547483;0.0074651;53.1363;128.6428;282.2545;76.9238;0;7.0E-7;0;Navigation
2.00547578;0.007465;53.1368;128.601;282.2861;76.8893;0;6.3E-7;0;Navigation
2.00547661;0.0074657;53.1372;128.5592;282.3054;76.865;0;5.2E-7;0;Navigation
2.00547743;0.0074643;53.1375;128.5384;282.3267;76.841;0;4.6E-7;0;Navigation
2.00547908;0.0074626;53.1381;128.4757;282.3776;76.7809;0;2.6E-7;0;Navigation
2.00548024;0.0074619;53.1386;128.434;282.41;76.7431;0;1.5E-7;0;Navigation
2.00548024;0.0074619;53.1386;128.434;282.41;76.7431;0;1.5E-7;0;Navigation
2.0054814;0.0074613;53.1391;128.3923;282.4402;76.7089;0;9.0E-8;0;Navigation
2.0054814;0.0074613;53.1391;128.3923;282.4402;76.7089;0;9.0E-8;0;Navigation
2.00548259;0.0074613;53.1395;128.3505;282.4681;76.6789;0;8.0E-8;0;Navigation
2.00548369;0.0074601;53.14;128.3088;282.5059;76.641;0;1.2E-7;0;Navigation
2.0054848;0.007459;53.1404;128.2671;282.5387;76.6098;0;2.1E-7;0;Navigation
2.00548499;0.0074593;53.1407;128.2462;282.5564;76.5931;0;2.5E-7;0;Navigation
2.00548575;0.0074577;53.1409;128.2254;282.5736;76.5775;0;3.1E-7;0;Navigation
2.0054866;0.0074565;53.1414;128.1836;282.6073;76.547;0;4.1E-7;0;Navigation
2.00548765;0.0074549;53.1418;128.1419;282.6402;76.5171;0;5.0E-7;0;Navigation
2.00548845;0.0074537;53.1422;128.1002;282.6739;76.4857;0;5.6E-7;0;Navigation
2.00548924;0.0074525;53.1427;128.0585;282.7102;76.4506;0;6.0E-7;0;Navigation
2.00548924;0.0074525;53.1427;128.0585;282.7102;76.4506;0;6.0E-7;0;Navigation
2.00549075;0.0074506;53.1435;127.975;282.7832;76.3752;0;5.8E-7;0;Navigation
2.00549126;0.0074497;53.1439;127.9333;282.821;76.334;0;5.4E-7;0;Navigation
2.00549126;0.0074497;53.1439;127.9333;282.821;76.334;0;5.4E-7;0;Navigation
2.00549208;0.0074477;53.1446;127.8707;282.8756;76.2727;0;4.7E-7;0;Navigation
2.00549256;0.0074459;53.1449;127.8499;282.8993;76.2469;0;4.5E-7;0;Navigation
2.00549256;0.0074459;53.1449;127.8499;282.8993;76.2469;0;4.5E-7;0;Navigation
2.00549396;0.0074417;53.1457;127.7665;282.9721;76.1672;0;3.9E-7;0;Navigation
2.00549462;0.00744;53.1462;127.7248;283.0059;76.1322;0;3.9E-7;0;Navigation
2.00549538;0.0074384;53.1466;127.6831;283.0403;76.0986;0;4.1E-7;0;Navigation
2.00549607;0.0074373;53.147;127.6413;283.0719;76.0693;0;4.5E-7;0;Navigation
2.00549687;0.0074358;53.1474;127.5995;283.1057;76.0384;0;4.8E-7;0;Navigation
2.00549781;0.0074341;53.1478;127.5578;283.1393;76.0075;0;5.0E-7;0;Navigation
2.00549884;0.0074324;53.1482;127.5161;283.1734;75.9747;0;4.8E-7;0;Navigation
2.00549984;0.0074301;53.1486;127.4743;283.206;75.9414;0;4.2E-7;0;Navigation
2.00550074;0.0074285;53.149;127.4325;283.235;75.9096;0;3.1E-7;0;Navigation
2.00550183;0.0074259;53.1495;127.3908;283.2662;75.8742;0;1.8E-7;0;Navigation
2.00550303;0.0074234;53.1499;127.349;283.2951;75.8406;0;3.0E-8;0;Navigation
2.00550423;0.0074215;53.1504;127.3072;283.3225;75.8089;0;-9.0E-8;0;Navigation
2.00550547;0.0074197;53.1507;127.2655;283.3502;75.7782;0;-1.8E-7;0;Navigation
2.00550655;0.0074178;53.1511;127.2239;283.3812;75.7461;0;-2.2E-7;0;Navigation
2.00550655;0.0074178;53.1511;127.2239;283.3812;75.7461;0;-2.2E-7;0;Navigation
